OBJECT_NAME,OBJECT_ID,EPOCH,MEAN_MOTION,ECCENTRICITY,INCLINATION,RA_OF_ASC_NODE,ARG_OF_PERICENTER,MEAN_ANOMALY,EPHEMERIS_TYPE,CLASSIFICATION_TYPE,NORAD_CAT_ID,ELEMENT_SET_NO,REV_AT_EPOCH,BSTAR,MEAN_MOTION_DOT,MEAN_MOTION_DDOT
STARLINK-11172 [DTC],2024-124L,2026-05-15T14:39:51.361632,15.69702275,.00009924,53.1588,191.4421,81.0943,279.0188,0,U,60193,999,10704,.10171131E-4,.644E-5,0
STARLINK-11152 [DTC],2024-124M,2026-05-15T09:57:44.964864,15.69700119,.00010778,53.1588,192.3495,85.1260,274.9881,0,U,60194,999,10820,-.1596664E-5,-.782E-5,0
STARLINK-11193 [DTC],2024-124N,2026-05-15T23:35:49.129728,15.69720338,.0001169,53.1587,189.4932,71.1650,288.9495,0,U,60195,999,10710,.9473005E-5,.559E-5,0
STARLINK-31869,2024-124P,2026-05-15T16:09:23.575392,15.31685845,.00011166,53.1614,11.1910,83.5925,276.5204,0,U,60196,999,10455,-.38786108E-4,-.1568E-4,0
STARLINK-32023,2024-124Q,2026-05-15T22:06:49.722048,15.34390120,.0001117,53.1597,9.9005,90.1544,270.0105,0,U,60197,999,10459,.44484E-4,.1505E-4,0
STARLINK-32046,2024-124R,2026-05-16T06:00:02.000160,15.31717943,.00011978,53.1588,8.7065,78.5098,121.2455,0,U,60198,999,576,-.47755695E-3,-.15163E-3,0
STARLINK-32049,2024-124S,2026-05-15T22:24:59.442912,15.34394320,.00011466,53.1618,9.9753,84.9566,275.1568,0,U,60199,999,10582,.45833507E-4,.1172E-4,0
STARLINK-32002,2024-124T,2026-05-15T16:16:04.680480,15.31705614,.0001253,53.1620,11.2168,84.2716,275.8428,0,U,60200,999,10455,.999338E-6,-.334E-5,0
STARLINK-32020,2024-124U,2026-05-15T22:15:58.222944,15.30195094,.0001161,53.1611,9.9289,84.8102,275.3031,0,U,60201,999,10459,.17970296E-4,.173E-5,0
STARLINK-32041,2024-124V,2026-05-16T00:19:18.959232,15.31707517,.00011156,53.1607,9.7538,92.7205,267.3925,0,U,60202,999,10580,.41734138E-4,.93E-5,0
2024-125A,2024-125A,2026-05-16T01:35:02.010336,15.62648017,.00083178,97.2319,353.7337,335.5007,24.5855,0,U,60203,999,10461,.52493221E-3,.47088E-3,0
R5-S4,2024-125D,2026-05-16T05:32:53.424960,15.42146061,.00160467,97.2427,347.6654,352.8266,7.2750,0,U,60206,999,10420,.30968779E-3,.13246E-3,0
R5-S2,2024-125E,2026-05-16T05:37:30.897696,15.43883552,.00153988,97.2401,348.3089,352.2964,7.8046,0,U,60207,999,10425,.33103915E-3,.15016E-3,0
MESAT1,2024-125G,2026-05-16T06:07:09.522912,15.59790716,.00089124,97.2337,353.0871,342.9179,17.1777,0,U,60209,999,10458,.61820137E-3,.49737E-3,0
TIANHUI 5C,2024-126A,2026-05-15T09:48:50.689728,14.87584375,.00015704,97.8207,143.4268,89.9080,270.2316,0,U,60211,999,10101,.31253509E-4,.23E-5,0
TIANHUI 5D,2024-126B,2026-05-15T08:11:59.148384,14.87584257,.00020407,97.8209,143.3680,91.3597,268.7853,0,U,60212,999,10101,.31468377E-4,.232E-5,0
TURKSAT 6A,2024-127A,2026-05-16T04:20:32.769312,1.00268361,.0000695,0.0391,208.5046,286.1050,206.4694,0,U,60233,999,669,0,.158E-5,0
GRBBETA,2024-128C,2026-05-16T00:41:01.971456,15.06357396,.00450044,61.9902,329.0722,128.0351,232.4817,0,U,60237,999,10142,.19902973E-3,.2788E-4,0
ISTSAT-1,2024-128D,2026-05-16T07:07:19.287264,15.11168281,.00425277,61.9882,318.8556,125.2139,235.2950,0,U,60238,999,10164,.33987101E-3,.563E-4,0
OOV-CUBE (TUBSAT-30),2024-128F,2026-05-16T01:09:39.079008,15.02598646,.00486163,61.9948,337.6259,126.7646,233.7923,0,U,60240,999,10128,.12231553E-3,.146E-4,0
CURIUM ONE,2024-128H,2026-05-16T02:25:15.104064,15.11961348,.00444002,61.9786,319.3733,124.5185,236.0115,0,U,60242,999,10160,.37193353E-3,.6339E-4,0
ROBUSTA-3A (MEDITERRANEE),2024-128J,2026-05-15T21:58:33.299616,15.11135148,.0045659,61.9865,322.3232,121.9263,238.6285,0,U,60243,999,10154,.34359984E-3,.5708E-4,0
CATSAT,2024-125J,2026-05-16T06:10:32.981088,15.55074833,.00211779,97.2113,348.4298,300.7637,59.1532,0,U,60246,999,10242,.76096846E-3,.51808E-3,0
GAOFEN-11 05,2024-130A,2026-05-14T03:48:14.588352,15.23875507,.00055323,97.4003,212.9397,184.9915,175.1268,0,U,60249,999,8028,.15069969E-3,.3566E-4,0
STARLINK-32138,2024-131A,2026-05-16T04:33:08.969760,15.31705177,.00014726,53.1612,98.8671,89.7134,270.4036,0,U,60255,999,10235,.13068015E-4,.4E-6,0
STARLINK-32212,2024-131B,2026-05-16T06:46:55.098624,15.30193503,.00013571,53.1597,98.7464,87.4037,272.7119,0,U,60256,999,10206,.25043862E-4,.382E-5,0
STARLINK-32166,2024-131C,2026-05-16T03:47:55.872384,15.30204897,.00012228,53.1603,99.3815,101.8547,258.2591,0,U,60257,999,10204,.8335523E-4,.2111E-4,0
STARLINK-32200,2024-131D,2026-05-16T06:43:53.238720,15.30186285,.00013771,53.1599,98.7222,86.5029,273.6130,0,U,60258,999,10206,-.16532827E-4,-.849E-5,0
STARLINK-32207,2024-131E,2026-05-16T06:40:50.323872,15.30201449,.00013214,53.1597,98.7195,95.7398,264.3753,0,U,60259,999,10206,-.1813751E-4,-.896E-5,0
STARLINK-32125,2024-131F,2026-05-16T03:53:50.619552,15.30196448,.00014225,53.1601,98.7021,77.1963,282.9197,0,U,60260,999,10205,.16848761E-4,.14E-5,0
STARLINK-32160,2024-131G,2026-05-16T03:40:19.655328,15.30193703,.0001423,53.1599,99.3433,90.7816,269.3348,0,U,60261,999,10209,.24558443E-4,.368E-5,0
STARLINK-32163,2024-131H,2026-05-16T03:59:32.435232,15.31702689,.00013146,53.1601,98.7196,82.0486,278.0665,0,U,60262,999,10205,.20199163E-4,.262E-5,0
STARLINK-32148,2024-131J,2026-05-16T06:15:00.440064,15.30195348,.0001247,53.1602,98.5911,88.4298,271.6846,0,U,60263,999,10211,.5118375E-5,-.208E-5,0
STARLINK-32121,2024-131K,2026-05-16T06:19:33.833856,15.30204130,.00011851,53.1601,98.6163,91.3505,268.7632,0,U,60264,999,10211,-.12118158E-3,-.3947E-4,0
STARLINK-32120,2024-131L,2026-05-16T06:42:57.871008,15.29295363,.00018733,53.1613,98.7193,66.9757,293.1441,0,U,60265,999,10211,.34369064E-3,.9556E-4,0
STARLINK-32205,2024-131M,2026-05-16T05:03:44.872992,15.30193904,.00013114,53.1598,99.0079,90.0299,270.0853,0,U,60266,999,10205,.18317361E-4,.183E-5,0
STARLINK-32158,2024-131N,2026-05-16T04:16:38.303040,15.30199610,.00012154,53.1601,98.7901,83.0130,277.1009,0,U,60267,999,10195,.20582439E-4,.25E-5,0
STARLINK-32167,2024-131P,2026-05-16T07:03:28.196640,15.30197508,.00013416,53.1598,98.1082,88.5587,271.5568,0,U,60268,999,10206,.15552767E-4,.101E-5,0
STARLINK-32144,2024-131Q,2026-05-16T04:12:58.957632,15.31706558,.0001269,53.1602,98.7715,80.3008,279.8137,0,U,60269,999,10210,.10458162E-4,-.41E-6,0
STARLINK-32211,2024-131R,2026-05-16T05:17:25.596096,15.30189036,.0000609,53.1607,99.0690,64.3011,295.8053,0,U,60270,999,10205,.22152499E-4,.297E-5,0
STARLINK-32164,2024-131S,2026-05-16T03:49:26.924160,15.30203329,.00012294,53.1603,99.3855,99.2869,260.8270,0,U,60271,999,10194,.39581708E-4,.813E-5,0
STARLINK-32128,2024-131T,2026-05-16T04:12:03.851712,15.30210442,.00014426,53.1597,98.7743,92.7545,267.3621,0,U,60272,999,10205,.71783219E-4,.1768E-4,0
STARLINK-32206,2024-131U,2026-05-16T06:42:21.534624,15.30197633,.00013805,53.1598,98.7233,86.2906,273.8253,0,U,60273,999,10206,.5074057E-5,-.209E-5,0
STARLINK-32155,2024-131V,2026-05-16T04:59:11.220864,15.30194119,.00012668,53.1604,98.9761,90.3192,269.7954,0,U,60274,999,10195,.131323E-4,.3E-6,0
STARLINK-32152,2024-131W,2026-05-16T04:07:31.283904,15.30192787,.0001275,53.1603,98.7523,83.9290,276.1856,0,U,60275,999,10195,.7190003E-5,-.146E-5,0
STARLINK-32154,2024-131X,2026-05-16T07:06:30.638880,15.30193029,.00013414,53.1601,98.1028,87.5299,272.5855,0,U,60276,999,10207,.15208435E-4,.91E-6,0
STARLINK-32135,2024-131Y,2026-05-16T04:22:43.000896,15.30195247,.00012755,53.1600,98.8147,86.8088,273.3058,0,U,60277,999,10205,-.7085543E-5,-.569E-5,0
STARLINK-32156,2024-132A,2026-05-16T04:09:03.950496,15.30201327,.00012685,53.1607,98.8878,84.7269,275.3876,0,U,60278,999,10311,.18061762E-4,.176E-5,0
STARLINK-32010,2024-132B,2026-05-16T03:12:10.310688,15.31702781,.00014058,53.1613,99.3550,75.3740,284.7418,0,U,60279,999,10188,.13605845E-4,.57E-6,0
STARLINK-32118,2024-132C,2026-05-16T03:59:57.081696,15.30195730,.00013004,53.1600,98.8477,90.1919,269.9231,0,U,60280,999,10189,.30012511E-4,.53E-5,0
STARLINK-32038,2024-132D,2026-05-16T04:02:59.489376,15.30197855,.00014633,53.1601,98.8611,85.5311,274.5857,0,U,60281,999,10189,.35063921E-4,.679E-5,0
STARLINK-32113,2024-132E,2026-05-16T07:12:36.518688,15.30207265,.00011979,53.1595,98.2599,83.8015,276.3122,0,U,60282,999,10191,-.3861744E-5,-.474E-5,0
STARLINK-32037,2024-132F,2026-05-16T04:33:23.090976,15.30197737,.00012641,53.1612,98.9924,94.9921,265.1224,0,U,60283,999,10189,-.8286637E-5,-.605E-5,0
STARLINK-32123,2024-132G,2026-05-16T06:12:43.184160,15.30195057,.0001379,53.1607,85.9443,85.2987,274.8171,0,U,60284,999,10208,.8981704E-5,-.93E-6,0
STARLINK-32122,2024-132H,2026-05-16T05:58:18.822144,15.30203394,.00012616,53.1604,98.6513,89.5255,270.5890,0,U,60285,999,10190,-.4096754E-5,-.481E-5,0
STARLINK-31656,2024-132J,2026-05-16T03:50:50.155872,15.30192395,.00015074,53.1597,98.8154,82.3645,277.7527,0,U,60286,999,10189,.13038341E-4,.27E-6,0
STARLINK-32114,2024-132K,2026-05-16T05:02:15.216576,15.30198184,.00013647,53.1601,99.1141,92.5993,267.5164,0,U,60287,999,10189,-.12016591E-3,-.3916E-4,0
STARLINK-31997,2024-132L,2026-05-16T06:45:15.864768,15.30190340,.00013509,53.1600,98.1386,96.2560,263.8595,0,U,60288,999,10191,.13140846E-4,.3E-6,0
STARLINK-32000,2024-132M,2026-05-16T04:19:14.401056,15.31708792,.00012067,53.1607,98.9330,83.2498,276.8641,0,U,60289,999,10189,.22035365E-4,.319E-5,0
STARLINK-32141,2024-132N,2026-05-16T04:15:08.869536,15.30195748,.00013359,53.1603,98.9116,81.1087,279.0065,0,U,60290,999,10189,.13687309E-4,.46E-6,0
STARLINK-32142,2024-132P,2026-05-16T03:44:45.319776,15.30191407,.00013053,53.1598,98.7812,94.1839,265.9311,0,U,60291,999,10189,.20053865E-4,.235E-5,0
STARLINK-32149,2024-132Q,2026-05-16T04:42:30.339936,15.30195096,.00011648,53.1612,99.0324,87.7823,272.3311,0,U,60292,999,10189,-.3785236E-5,-.471E-5,0
STARLINK-32159,2024-132R,2026-05-16T05:15:46.662912,15.30188518,.00014137,53.1601,98.4644,75.7154,284.4004,0,U,60293,999,10190,.64138485E-4,.154E-4,0
STARLINK-32150,2024-132S,2026-05-16T04:47:03.840864,15.30193171,.00018071,53.1605,99.0515,90.7471,269.3737,0,U,60294,999,10189,.2541489E-5,-.284E-5,0
